GSAT0101 (PRN E11)      
1 37846U 11060A   21315.04129191 -.00000101  00000-0  00000-0 0  9998
2 37846  56.9076  27.2842 0001023 315.7966  44.2346  1.70474999 62495
GSAT0102 (PRN E12)      
1 37847U 11060B   21314.37599692 -.00000098  00000-0  00000+0 0  9995
2 37847  56.9082  27.3021 0003017 293.3708  64.7709  1.70475219 62602
GSAT0103 (PRN E19)      
1 38857U 12055A   21315.08202609  .00000064  00000-0  00000-0 0  9993
2 38857  55.0778 147.7043 0001435 230.8176 129.2230  1.70473721 56384
GSAT0104 (PRN E20)      
1 38858U 12055B   21315.63908063  .00000067  00000-0  00000-0 0  9995
2 38858  55.0781 147.6905 0001536 120.7507 239.3187  1.70474026 56396
GSAT0201 (PRN E18)      
1 40128U 14050A   21314.37539569 -.00000088  00000-0  00000+0 0  9999
2 40128  50.4091 341.0108 1637366 116.4284 261.3160  1.85519242 49099
GSAT0202 (PRN E14)      
1 40129U 14050B   21315.17620877 -.00000088  00000-0  00000-0 0  9993
2 40129  50.4371 340.0328 1634423 117.2660 260.3439  1.85519932 49333
GSAT0203 (PRN E26)      
1 40544U 15017A   21311.30362148 -.00000086  00000-0  00000-0 0  9991
2 40544  56.6469  27.4514 0056081 266.8121  92.5916  1.70473077 40512
GSAT0204 (PRN E22)      
1 40545U 15017B   21313.90232507 -.00000097  00000-0  00000-0 0  9997
2 40545  56.7079  27.3902 0004515 224.7159 135.2890  1.70475622  3603
GSAT0205 (PRN E24)      
1 40889U 15045A   21315.42941264 -.00000032  00000-0  00000-0 0  9994
2 40889  55.7737 267.9847 0005081 353.2758   6.7002  1.70474639 38394
GSAT0206 (PRN E30)      
1 40890U 15045B   21315.06245366 -.00000029  00000-0  00000-0 0  9992
2 40890  55.7727 267.9908 0003826 336.6053  23.3607  1.70472831 38412
GSAT0209 (PRN E09)      
1 41174U 15079A   21314.65189773  .00000063  00000-0  00000+0 0  9994
2 41174  55.0930 147.4180 0002322 346.3913  13.6549  1.70473081 36721
GSAT0208 (PRN E08)      
1 41175U 15079B   21314.28497492  .00000062  00000-0  00000-0 0  9994
2 41175  55.0916 147.4269 0001787   0.4733 359.5793  1.70473040 36555
GSAT0211 (PRN E02)      
1 41549U 16030A   21314.99104902 -.00000028  00000-0  00000-0 0  9999
2 41549  55.9175 267.9027 0005137 316.3743  43.5686  1.70474388 34048
GSAT0210 (PRN E01)      
1 41550U 16030B   21314.69719157 -.00000026  00000-0  00000-0 0  9990
2 41550  55.9169 267.9124 0004577 293.3432  66.5925  1.70474328 34031
GSAT0207 (PRN E07)      
1 41859U 16069A   21315.53099785  .00000065  00000-0  00000-0 0  9998
2 41859  54.7534 147.6290 0001794 319.7197  40.3210  1.70473065 30785
GSAT0212 (PRN E03)      
1 41860U 16069B   21314.79783968  .00000062  00000-0  00000-0 0  9997
2 41860  54.7505 147.6473 0002046  21.1369 338.9245  1.70473024 31021
GSAT0213 (PRN E04)      
1 41861U 16069C   21313.40359880  .00000060  00000-0  00000-0 0  9995
2 41861  54.7523 147.6908 0001243 256.5292 103.5114  1.70473137 30869
GSAT0214 (PRN E05)      
1 41862U 16069D   21314.13729602  .00000061  00000-0  00000+0 0  9990
2 41862  54.7511 147.6653 0000357 259.3658 100.6831  1.70473111 31009
GSAT0215 (PRN E21)      
1 43055U 17079A   21315.21412592 -.00000030  00000-0  00000-0 0  9993
2 43055  55.8927 267.7324 0003898 290.9995  68.9422  1.70473565 24361
GSAT0216 (PRN E25)      
1 43056U 17079B   21314.33334038 -.00000023  00000-0  00000+0 0  9995
2 43056  55.8937 267.7563 0005658 287.4308  72.4913  1.70473681 24334
GSAT0217 (PRN E27)      
1 43057U 17079C   21315.14010282 -.00000029  00000-0  00000-0 0  9995
2 43057  55.8908 267.7343 0005340 298.5159  61.4138  1.70473682 24365
GSAT0218 (PRN E31)      
1 43058U 17079D   21315.36011970 -.00000031  00000-0  00000-0 0  9998
2 43058  55.8911 267.7256 0006007 283.8222  76.0940  1.70473678 24393
GSAT0221 (PRN E15)      
1 43564U 18060A   21315.84519704 -.00000103  00000-0  00000-0 0  9992
2 43564  57.0865  27.0852 0004709 256.6096 103.3765  1.70476118 20555
GSAT0222 (PRN E33)      
1 43565U 18060B   21315.47845075 -.00000102  00000-0  00000-0 0  9994
2 43565  57.0886  27.0953 0004162 262.3215  97.6703  1.70476108 20580
GSAT0219 (PRN E36)      
1 43566U 18060C   21315.11245007 -.00000101  00000-0  00000-0 0  9994
2 43566  57.0888  27.1073 0003802 260.9352  99.0614  1.70476084 20550
GSAT0220 (PRN E13)      
1 43567U 18060D   21315.33240930 -.00000102  00000-0  00000-0 0  9990
2 43567  57.0887  27.1010 0004018 256.6459 103.3485  1.70475870 20558
